IRIDIUM 63              
1 25286U 98021B   25213.52487302  .00000321  00000+0  10266-3 0  9990
2 25286  86.3939  63.1027 0002264  91.2920 268.8536 14.36571669430350
IRIDIUM 69              
1 25319U 98026A   25214.16219525  .00000432  00000+0  12837-3 0  9992
2 25319  86.3934  75.9882 0001352 168.3166 191.8065 14.41003494429922
IRIDIUM 71              
1 25320U 98026B   25213.60760538  .00000347  00000+0  10137-3 0  9993
2 25320  86.3932  70.9047 0001060  13.8188 346.3041 14.41187285430388
IRIDIUM 73              
1 25344U 98032C   25214.03646776  .00000564  00000+0  13539-3 0  9991
2 25344  86.4405  27.3332 0002114 107.9467 252.1970 14.51755267437518
IRIDIUM 82              
1 25467U 98051A   25213.65268101  .00028402  00000+0  76579-3 0  9991
2 25467  86.3633  87.3499 0084284 122.6179 238.3243 15.34044680430927
